[{"OBJECT_NAME":"LAPAN-A3","OBJECT_ID":"2016-040E","EPOCH":"2026-03-09T23:01:57.724896","MEAN_MOTION":15.3238951,"ECCENTRICITY":0.00109839,"INCLINATION":97.1488,"RA_OF_ASC_NODE":68.4254,"ARG_OF_PERICENTER":22.062,"MEAN_ANOMALY":338.1093,"EPHEMERIS_TYPE":0,"CLASSIFICATION_TYPE":"U","NORAD_CAT_ID":41603,"ELEMENT_SET_NO":999,"REV_AT_EPOCH":53961,"BSTAR":0.00017567445,"MEAN_MOTION_DOT":5.428e-5,"MEAN_MOTION_DDOT":0},{"OBJECT_NAME":"STARLINK-35731","OBJECT_ID":"2025-244Y","EPOCH":"2026-03-09T16:58:01.082208","MEAN_MOTION":15.30216386,"ECCENTRICITY":0.00012132,"INCLINATION":53.1598,"RA_OF_ASC_NODE":229.7217,"ARG_OF_PERICENTER":65.7768,"MEAN_ANOMALY":294.3359,"EPHEMERIS_TYPE":0,"CLASSIFICATION_TYPE":"U","NORAD_CAT_ID":66228,"ELEMENT_SET_NO":999,"REV_AT_EPOCH":2166,"BSTAR":0.00069964213,"MEAN_MOTION_DOT":0.0002043,"MEAN_MOTION_DDOT":0}]
